OBJECT C                
1 57582U 23117C   25012.15819714  .00010387  00000+0  45626-3 0  9991
2 57582  97.4647  87.9592 0008280 287.7307  72.3025 15.22079199 78906
